STARLINK-36488          
1 67306U 26002B   26022.50002314 -.00001636  00000+0 -75205-5 0  9990
2 67306  42.9989 230.0554 0001586 263.7743 314.9111 15.75101969  3991
STARLINK-36481          
1 67307U 26002C   26022.50002314 -.00014171  00000+0 -89096-4 0  9991
2 67307  42.9988 230.0464 0001545 251.0994 331.4463 15.75089287  3996
STARLINK-36449          
1 67308U 26002D   26022.50002314 -.00015949  00000+0 -10060-3 0  9990
2 67308  42.9988 230.0415 0001686 252.3840 332.0491 15.75108203  4059
STARLINK-36482          
1 67309U 26002E   26022.50002314 -.00210128  00000+0 -13931-2 0  9996
2 67309  42.9989 230.0188 0001479 256.2769 337.7513 15.75136255  3998
STARLINK-36491          
1 67310U 26002F   26022.50002314 -.00024274  00000+0 -15489-3 0  9994
2 67310  42.9989 230.0518 0001267 275.4785 305.1183 15.75110298  3994
STARLINK-36495          
1 67311U 26002G   26022.50002314 -.00002591  00000+0 -13722-4 0  9992
2 67311  42.9990 230.0374 0001622 263.2475 323.1176 15.75104514  4158
STARLINK-36485          
1 67312U 26002H   26022.50002314 -.00016846  00000+0 -10651-3 0  9998
2 67312  42.9990 230.0319 0001781 250.9672 337.3266 15.75094752  3996
STARLINK-36445          
1 67313U 26002J   26022.50002314  .00021546  00000+0  14263-3 0  9993
2 67313  42.9990 230.0264 0001455 257.6672 332.5017 15.75100914  4156
STARLINK-36476          
1 67314U 26002K   26022.50002314 -.00063754  00000+0 -41392-3 0  9996
2 67314  42.9988 230.0227 0001700 254.0924 338.0385 15.75100740  3994
STARLINK-36463          
1 67315U 26002L   26022.50002314 -.00036940  00000+0 -23840-3 0  9992
2 67315  42.9990 230.0126 0001969 237.4011 358.5707 15.75038859  4059
STARLINK-36461          
1 67316U 26002M   26022.50002314 -.00146333  00000+0 -96332-3 0  9997
2 67316  42.9989 230.0080 0001857 264.7949 333.1723 15.75103032  4150
STARLINK-36450          
1 67317U 26002N   26022.50002314 -.00018945  00000+0 -12016-3 0  9992
2 67317  42.9990 230.0027 0001633 254.7455 345.0332 15.75102203  4154
