CCSDS_OMM_VERS = 2.0
CREATION_DATE  = 
ORIGINATOR     = 

OBJECT_NAME    = STARLINK-36488
OBJECT_ID      = 2026-002B
CENTER_NAME    = EARTH
REF_FRAME      = TEME
TIME_SYSTEM    = UTC
MEAN_ELEMENT_THEORY = SGP/SGP4

EPOCH          = 2026-01-22T12:00:01.999296
MEAN_MOTION    = 15.75101969
ECCENTRICITY   = .0001586
INCLINATION    = 42.9989
RA_OF_ASC_NODE = 230.0554
ARG_OF_PERICENTER = 263.7743
MEAN_ANOMALY   = 314.9111

EPHEMERIS_TYPE = 0
CLASSIFICATION_TYPE = U
NORAD_CAT_ID   = 67306
ELEMENT_SET_NO = 999
REV_AT_EPOCH   = 399
BSTAR          = -.75205E-5
MEAN_MOTION_DOT = -.1636E-4
MEAN_MOTION_DDOT = 0

CCSDS_OMM_VERS = 2.0
CREATION_DATE  = 
ORIGINATOR     = 

OBJECT_NAME    = STARLINK-36481
OBJECT_ID      = 2026-002C
CENTER_NAME    = EARTH
REF_FRAME      = TEME
TIME_SYSTEM    = UTC
MEAN_ELEMENT_THEORY = SGP/SGP4

EPOCH          = 2026-01-22T12:00:01.999296
MEAN_MOTION    = 15.75089287
ECCENTRICITY   = .0001545
INCLINATION    = 42.9988
RA_OF_ASC_NODE = 230.0464
ARG_OF_PERICENTER = 251.0994
MEAN_ANOMALY   = 331.4463

EPHEMERIS_TYPE = 0
CLASSIFICATION_TYPE = U
NORAD_CAT_ID   = 67307
ELEMENT_SET_NO = 999
REV_AT_EPOCH   = 399
BSTAR          = -.89096E-4
MEAN_MOTION_DOT = -.14171E-3
MEAN_MOTION_DDOT = 0

CCSDS_OMM_VERS = 2.0
CREATION_DATE  = 
ORIGINATOR     = 

OBJECT_NAME    = STARLINK-36449
OBJECT_ID      = 2026-002D
CENTER_NAME    = EARTH
REF_FRAME      = TEME
TIME_SYSTEM    = UTC
MEAN_ELEMENT_THEORY = SGP/SGP4

EPOCH          = 2026-01-22T12:00:01.999296
MEAN_MOTION    = 15.75108203
ECCENTRICITY   = .0001686
INCLINATION    = 42.9988
RA_OF_ASC_NODE = 230.0415
ARG_OF_PERICENTER = 252.3840
MEAN_ANOMALY   = 332.0491

EPHEMERIS_TYPE = 0
CLASSIFICATION_TYPE = U
NORAD_CAT_ID   = 67308
ELEMENT_SET_NO = 999
REV_AT_EPOCH   = 405
BSTAR          = -.1006E-3
MEAN_MOTION_DOT = -.15949E-3
MEAN_MOTION_DDOT = 0

CCSDS_OMM_VERS = 2.0
CREATION_DATE  = 
ORIGINATOR     = 

OBJECT_NAME    = STARLINK-36482
OBJECT_ID      = 2026-002E
CENTER_NAME    = EARTH
REF_FRAME      = TEME
TIME_SYSTEM    = UTC
MEAN_ELEMENT_THEORY = SGP/SGP4

EPOCH          = 2026-01-22T12:00:01.999296
MEAN_MOTION    = 15.75136255
ECCENTRICITY   = .0001479
INCLINATION    = 42.9989
RA_OF_ASC_NODE = 230.0188
ARG_OF_PERICENTER = 256.2769
MEAN_ANOMALY   = 337.7513

EPHEMERIS_TYPE = 0
CLASSIFICATION_TYPE = U
NORAD_CAT_ID   = 67309
ELEMENT_SET_NO = 999
REV_AT_EPOCH   = 399
BSTAR          = -.13931E-2
MEAN_MOTION_DOT = -.210128E-2
MEAN_MOTION_DDOT = 0

CCSDS_OMM_VERS = 2.0
CREATION_DATE  = 
ORIGINATOR     = 

OBJECT_NAME    = STARLINK-36491
OBJECT_ID      = 2026-002F
CENTER_NAME    = EARTH
REF_FRAME      = TEME
TIME_SYSTEM    = UTC
MEAN_ELEMENT_THEORY = SGP/SGP4

EPOCH          = 2026-01-22T12:00:01.999296
MEAN_MOTION    = 15.75110298
ECCENTRICITY   = .0001267
INCLINATION    = 42.9989
RA_OF_ASC_NODE = 230.0518
ARG_OF_PERICENTER = 275.4785
MEAN_ANOMALY   = 305.1183

EPHEMERIS_TYPE = 0
CLASSIFICATION_TYPE = U
NORAD_CAT_ID   = 67310
ELEMENT_SET_NO = 999
REV_AT_EPOCH   = 399
BSTAR          = -.15489E-3
MEAN_MOTION_DOT = -.24274E-3
MEAN_MOTION_DDOT = 0

CCSDS_OMM_VERS = 2.0
CREATION_DATE  = 
ORIGINATOR     = 

OBJECT_NAME    = STARLINK-36495
OBJECT_ID      = 2026-002G
CENTER_NAME    = EARTH
REF_FRAME      = TEME
TIME_SYSTEM    = UTC
MEAN_ELEMENT_THEORY = SGP/SGP4

EPOCH          = 2026-01-22T12:00:01.999296
MEAN_MOTION    = 15.75104514
ECCENTRICITY   = .0001622
INCLINATION    = 42.9990
RA_OF_ASC_NODE = 230.0374
ARG_OF_PERICENTER = 263.2475
MEAN_ANOMALY   = 323.1176

EPHEMERIS_TYPE = 0
CLASSIFICATION_TYPE = U
NORAD_CAT_ID   = 67311
ELEMENT_SET_NO = 999
REV_AT_EPOCH   = 415
BSTAR          = -.13722E-4
MEAN_MOTION_DOT = -.2591E-4
MEAN_MOTION_DDOT = 0

CCSDS_OMM_VERS = 2.0
CREATION_DATE  = 
ORIGINATOR     = 

OBJECT_NAME    = STARLINK-36485
OBJECT_ID      = 2026-002H
CENTER_NAME    = EARTH
REF_FRAME      = TEME
TIME_SYSTEM    = UTC
MEAN_ELEMENT_THEORY = SGP/SGP4

EPOCH          = 2026-01-22T12:00:01.999296
MEAN_MOTION    = 15.75094752
ECCENTRICITY   = .0001781
INCLINATION    = 42.9990
RA_OF_ASC_NODE = 230.0319
ARG_OF_PERICENTER = 250.9672
MEAN_ANOMALY   = 337.3266

EPHEMERIS_TYPE = 0
CLASSIFICATION_TYPE = U
NORAD_CAT_ID   = 67312
ELEMENT_SET_NO = 999
REV_AT_EPOCH   = 399
BSTAR          = -.10651E-3
MEAN_MOTION_DOT = -.16846E-3
MEAN_MOTION_DDOT = 0

CCSDS_OMM_VERS = 2.0
CREATION_DATE  = 
ORIGINATOR     = 

OBJECT_NAME    = STARLINK-36445
OBJECT_ID      = 2026-002J
CENTER_NAME    = EARTH
REF_FRAME      = TEME
TIME_SYSTEM    = UTC
MEAN_ELEMENT_THEORY = SGP/SGP4

EPOCH          = 2026-01-22T12:00:01.999296
MEAN_MOTION    = 15.75100914
ECCENTRICITY   = .0001455
INCLINATION    = 42.9990
RA_OF_ASC_NODE = 230.0264
ARG_OF_PERICENTER = 257.6672
MEAN_ANOMALY   = 332.5017

EPHEMERIS_TYPE = 0
CLASSIFICATION_TYPE = U
NORAD_CAT_ID   = 67313
ELEMENT_SET_NO = 999
REV_AT_EPOCH   = 415
BSTAR          = .14263E-3
MEAN_MOTION_DOT = .21546E-3
MEAN_MOTION_DDOT = 0

CCSDS_OMM_VERS = 2.0
CREATION_DATE  = 
ORIGINATOR     = 

OBJECT_NAME    = STARLINK-36476
OBJECT_ID      = 2026-002K
CENTER_NAME    = EARTH
REF_FRAME      = TEME
TIME_SYSTEM    = UTC
MEAN_ELEMENT_THEORY = SGP/SGP4

EPOCH          = 2026-01-22T12:00:01.999296
MEAN_MOTION    = 15.75100740
ECCENTRICITY   = .00017
INCLINATION    = 42.9988
RA_OF_ASC_NODE = 230.0227
ARG_OF_PERICENTER = 254.0924
MEAN_ANOMALY   = 338.0385

EPHEMERIS_TYPE = 0
CLASSIFICATION_TYPE = U
NORAD_CAT_ID   = 67314
ELEMENT_SET_NO = 999
REV_AT_EPOCH   = 399
BSTAR          = -.41392E-3
MEAN_MOTION_DOT = -.63754E-3
MEAN_MOTION_DDOT = 0

CCSDS_OMM_VERS = 2.0
CREATION_DATE  = 
ORIGINATOR     = 

OBJECT_NAME    = STARLINK-36463
OBJECT_ID      = 2026-002L
CENTER_NAME    = EARTH
REF_FRAME      = TEME
TIME_SYSTEM    = UTC
MEAN_ELEMENT_THEORY = SGP/SGP4

EPOCH          = 2026-01-22T12:00:01.999296
MEAN_MOTION    = 15.75038859
ECCENTRICITY   = .0001969
INCLINATION    = 42.9990
RA_OF_ASC_NODE = 230.0126
ARG_OF_PERICENTER = 237.4011
MEAN_ANOMALY   = 358.5707

EPHEMERIS_TYPE = 0
CLASSIFICATION_TYPE = U
NORAD_CAT_ID   = 67315
ELEMENT_SET_NO = 999
REV_AT_EPOCH   = 405
BSTAR          = -.2384E-3
MEAN_MOTION_DOT = -.3694E-3
MEAN_MOTION_DDOT = 0

CCSDS_OMM_VERS = 2.0
CREATION_DATE  = 
ORIGINATOR     = 

OBJECT_NAME    = STARLINK-36461
OBJECT_ID      = 2026-002M
CENTER_NAME    = EARTH
REF_FRAME      = TEME
TIME_SYSTEM    = UTC
MEAN_ELEMENT_THEORY = SGP/SGP4

EPOCH          = 2026-01-22T12:00:01.999296
MEAN_MOTION    = 15.75103032
ECCENTRICITY   = .0001857
INCLINATION    = 42.9989
RA_OF_ASC_NODE = 230.0080
ARG_OF_PERICENTER = 264.7949
MEAN_ANOMALY   = 333.1723

EPHEMERIS_TYPE = 0
CLASSIFICATION_TYPE = U
NORAD_CAT_ID   = 67316
ELEMENT_SET_NO = 999
REV_AT_EPOCH   = 415
BSTAR          = -.96332E-3
MEAN_MOTION_DOT = -.146333E-2
MEAN_MOTION_DDOT = 0

CCSDS_OMM_VERS = 2.0
CREATION_DATE  = 
ORIGINATOR     = 

OBJECT_NAME    = STARLINK-36450
OBJECT_ID      = 2026-002N
CENTER_NAME    = EARTH
REF_FRAME      = TEME
TIME_SYSTEM    = UTC
MEAN_ELEMENT_THEORY = SGP/SGP4

EPOCH          = 2026-01-22T12:00:01.999296
MEAN_MOTION    = 15.75102203
ECCENTRICITY   = .0001633
INCLINATION    = 42.9990
RA_OF_ASC_NODE = 230.0027
ARG_OF_PERICENTER = 254.7455
MEAN_ANOMALY   = 345.0332

EPHEMERIS_TYPE = 0
CLASSIFICATION_TYPE = U
NORAD_CAT_ID   = 67317
ELEMENT_SET_NO = 999
REV_AT_EPOCH   = 415
BSTAR          = -.12016E-3
MEAN_MOTION_DOT = -.18945E-3
MEAN_MOTION_DDOT = 0

